NORAD_CAT_ID,OBJECT_NAME,OBJECT_TYPE,EPOCH,MEAN_MOTION,ECCENTRICITY,INCLINATION,RA_OF_ASC_NODE,ARG_OF_PERICENTER,MEAN_ANOMALY,BSTAR,MEAN_MOTION_DOT,MEAN_MOTION_DDOT,TLE_LINE0,TLE_LINE1,TLE_LINE2,SEMIMAJOR_AXIS,PERIOD,APOGEE,PERIGEE,DECAYED
54178.0,STARLINK-5164,PAYLOAD,2023-10-01 18:22:56,15.0885694,0.000143,53.2188,38.8144,89.404,270.7116,0.00028504,4.253e-05,0.0,0 STARLINK-5164,1 54178U 22141X   23274.76593367  .00004253  00000-0  28504-3 0  9995,2 54178  53.2188  38.8144 0001430  89.4040 270.7116 15.08856940 51517,6917.829,95.436,540.683,538.704,0.0
54178.0,STARLINK-5164,PAYLOAD,2023-10-02 08:41:25,15.08832304,0.0001206,53.2179,36.1417,88.473,271.6401,-0.00019104,-3.326e-05,0.0,0 STARLINK-5164,1 54178U 22141X   23275.36210220 -.00003326  00000-0 -19104-3 0  9994,2 54178  53.2179  36.1417 0001206  88.4730 271.6401 15.08832304 51602,6917.904,95.438,540.603,538.935,0.0
54178.0,STARLINK-5164,PAYLOAD,2023-10-02 13:27:34,15.08837179,0.0001343,53.2179,35.2485,96.8433,263.2712,-6.6788e-05,-1.351e-05,0.0,0 STARLINK-5164,1 54178U 22141X   23275.56082137 -.00001351  00000-0 -66788-4 0  9997,2 54178  53.2179  35.2485 0001343  96.8433 263.2712 15.08837179 51632,6917.889,95.438,540.683,538.825,0.0
54178.0,STARLINK-5164,PAYLOAD,2023-10-03 00:35:16,15.08840239,0.000128,53.2178,33.1676,91.195,268.9188,2.0175e-05,3.3e-07,0.0,0 STARLINK-5164,1 54178U 22141X   23276.02450204  .00000033  00000-0  20175-4 0  9997,2 54178  53.2178  33.1676 0001280  91.1950 268.9188 15.08840239 51700,6917.88,95.438,540.63,538.859,0.0
54178.0,STARLINK-5164,PAYLOAD,2023-10-03 14:53:45,15.08841794,0.0001266,53.2191,30.494,91.2931,268.8206,0.00055884,8.618e-05,0.0,0 STARLINK-5164,1 54178U 22141X   23276.62066544  .00008618  00000-0  55884-3 0  9994,2 54178  53.2191  30.4940 0001266  91.2931 268.8206 15.08841794 51799,6917.875,95.437,540.616,538.864,0.0
54178.0,STARLINK-5164,PAYLOAD,2023-10-04 08:22:59,15.08842364,0.0001054,53.2182,27.2226,92.0285,268.0828,0.00015431,2.169e-05,0.0,0 STARLINK-5164,1 54178U 22141X   23277.34930298  .00002169  00000-0  15431-3 0  9999,2 54178  53.2182  27.2226 0001054  92.0285 268.0828 15.08842364 51905,6917.873,95.437,540.467,539.009,0.0
54178.0,STARLINK-5164,PAYLOAD,2023-10-04 13:09:09,15.08846466,0.00011,53.2189,26.3303,91.4298,268.682,0.00024238,3.572e-05,0.0,0 STARLINK-5164,1 54178U 22141X   23277.54802171  .00003572  00000-0  24238-3 0  9993,2 54178  53.2189  26.3303 0001100  91.4298 268.6820 15.08846466 51935,6917.861,95.437,540.487,538.965,0.0
54178.0,STARLINK-5164,PAYLOAD,2023-10-04 14:44:32,15.0885199,0.0001131,53.2192,26.0327,88.5526,271.5595,0.00035222,5.324e-05,0.0,0 STARLINK-5164,1 54178U 22141X   23277.61425995  .00005324  00000-0  35222-3 0  9998,2 54178  53.2192  26.0327 0001131  88.5526 271.5595 15.08851990 51948,6917.844,95.437,540.491,538.926,0.0
54178.0,STARLINK-5164,PAYLOAD,2023-10-05 06:38:23,15.08838261,0.0001063,53.2185,23.0598,75.9759,284.1351,7.2227e-05,8.62e-06,0.0,0 STARLINK-5164,1 54178U 22141X   23278.27666665  .00000862  00000-0  72227-4 0  9991,2 54178  53.2185  23.0598 0001063  75.9759 284.1351 15.08838261 52047,6917.886,95.438,540.486,539.015,0.0
54178.0,STARLINK-5164,PAYLOAD,2023-10-05 12:59:56,15.0884439,0.0001273,53.2179,21.8696,83.2923,276.8214,0.00012998,1.782e-05,0.0,0 STARLINK-5164,1 54178U 22141X   23278.54162362  .00001782  00000-0  12998-3 0  9996,2 54178  53.2179  21.8696 0001273  83.2923 276.8214 15.08844390 52083,6917.867,95.437,540.613,538.851,0.0
54178.0,STARLINK-5164,PAYLOAD,2023-10-05 14:35:19,15.08847725,0.0001271,53.2178,21.5723,76.9092,283.2041,0.0002945,4.403e-05,0.0,0 STARLINK-5164,1 54178U 22141X   23278.60786313  .00004403  00000-0  29450-3 0  9995,2 54178  53.2178  21.5723 0001271  76.9092 283.2041 15.08847725 52090,6917.857,95.437,540.601,538.843,0.0
54178.0,STARLINK-5164,PAYLOAD,2023-10-06 11:15:20,15.08835823,0.000119,53.2175,17.7058,101.8355,258.277,0.00010524,1.387e-05,0.0,0 STARLINK-5164,1 54178U 22141X   23279.46898875  .00001387  00000-0  10524-3 0  9997,2 54178  53.2175  17.7058 0001190 101.8355 258.2770 15.08835823 52227,6917.893,95.438,540.581,538.935,0.0
54178.0,STARLINK-5164,PAYLOAD,2023-10-06 12:50:43,15.08839743,0.0001209,53.2174,17.4083,91.8015,268.3115,0.00023743,3.493e-05,0.0,0 STARLINK-5164,1 54178U 22141X   23279.53522909  .00003493  00000-0  23743-3 0  9994,2 54178  53.2174  17.4083 0001209  91.8015 268.3115 15.08839743 52234,6917.881,95.438,540.583,538.91,0.0
54178.0,STARLINK-5164,PAYLOAD,2023-10-06 14:26:07,15.08839843,0.0001205,53.2172,17.1109,93.099,267.014,0.00049738,7.637e-05,0.0,0 STARLINK-5164,1 54178U 22141X   23279.60147052  .00007637  00000-0  49738-3 0  9990,2 54178  53.2172  17.1109 0001205  93.0990 267.0140 15.08839843 52246,6917.881,95.438,540.579,538.912,0.0
54178.0,STARLINK-5164,PAYLOAD,2023-10-07 12:41:30,15.08850702,0.0001273,53.218,12.9492,85.2426,274.8712,0.00050573,7.772e-05,0.0,0 STARLINK-5164,1 54178U 22141X   23280.52883058  .00007772  00000-0  50573-3 0  9995,2 54178  53.2180  12.9492 0001273  85.2426 274.8712 15.08850702 52388,6917.848,95.437,540.593,538.832,0.0
54178.0,STARLINK-5164,PAYLOAD,2023-10-07 23:49:13,15.08847099,0.0001339,53.2166,10.8685,78.289,281.8252,0.0004767,7.308e-05,0.0,0 STARLINK-5164,1 54178U 22141X   23280.99251182  .00007308  00000-0  47670-3 0  9992,2 54178  53.2166  10.8685 0001339  78.2890 281.8252 15.08847099 52453,6917.859,95.437,540.65,538.797,0.0
54178.0,STARLINK-5164,PAYLOAD,2023-10-08 10:56:55,15.08844477,0.0001565,53.2184,8.7846,103.3755,256.7412,0.0001954,2.824e-05,0.0,0 STARLINK-5164,1 54178U 22141X   23281.45619234  .00002824  00000-0  19540-3 0  9993,2 54178  53.2184   8.7846 0001565 103.3755 256.7412 15.08844477 52523,6917.867,95.437,540.814,538.649,0.0
54178.0,STARLINK-5164,PAYLOAD,2023-10-08 12:32:18,15.08846748,0.0001597,53.2181,8.488,94.1867,265.9307,0.00026052,3.861e-05,0.0,0 STARLINK-5164,1 54178U 22141X   23281.52243200  .00003861  00000-0  26052-3 0  9995,2 54178  53.2181   8.4880 0001597  94.1867 265.9307 15.08846748 52530,6917.86,95.437,540.83,538.62,0.0
54178.0,STARLINK-5164,PAYLOAD,2023-10-09 09:12:19,15.08842802,0.0001605,53.2194,4.6242,88.311,271.8066,0.00010221,1.339e-05,0.0,0 STARLINK-5164,1 54178U 22141X   23282.38355393  .00001339  00000-0  10221-3 0  9996,2 54178  53.2194   4.6242 0001605  88.3110 271.8066 15.08842802 52669,6917.872,95.437,540.847,538.627,0.0
54178.0,STARLINK-5164,PAYLOAD,2023-10-09 12:23:05,15.08847701,0.0001444,53.2184,4.0281,92.5812,267.5346,0.00017844,2.554e-05,0.0,0 STARLINK-5164,1 54178U 22141X   23282.51603096  .00002554  00000-0  17844-3 0  9995,2 54178  53.2184   4.0281 0001444  92.5812 267.5346 15.08847701 52680,6917.857,95.437,540.721,538.723,0.0
54178.0,STARLINK-5164,PAYLOAD,2023-10-09 17:09:14,15.08858443,0.0001514,53.2203,3.1331,95.2099,264.9066,0.00037947,5.759e-05,0.0,0 STARLINK-5164,1 54178U 22141X   23282.71474576  .00005759  00000-0  37947-3 0  9992,2 54178  53.2203   3.1331 0001514  95.2099 264.9066 15.08858443 52712,6917.824,95.436,540.736,538.642,0.0
54178.0,STARLINK-5164,PAYLOAD,2023-10-10 10:38:29,15.08839606,0.0001651,53.219,359.8653,94.7516,265.3664,0.00013148,1.805e-05,0.0,0 STARLINK-5164,1 54178U 22141X   23283.44339575  .00001805  00000-0  13148-3 0  9997,2 54178  53.2190 359.8653 0001651  94.7516 265.3664 15.08839606 52826,6917.882,95.438,540.889,538.604,0.0
54178.0,STARLINK-5164,PAYLOAD,2023-10-10 12:13:52,15.08844532,0.0001531,53.2196,359.5698,82.4855,277.6311,0.00039826,6.057e-05,0.0,0 STARLINK-5164,1 54178U 22141X   23283.50963484  .00006057  00000-0  39826-3 0  9991,2 54178  53.2196 359.5698 0001531  82.4855 277.6311 15.08844532 52835,6917.867,95.437,540.791,538.672,0.0
54178.0,STARLINK-5164,PAYLOAD,2023-10-10 17:00:01,15.08858779,0.00015,53.2193,358.6764,80.8022,279.314,0.00090187,0.00014102,0.0,0 STARLINK-5164,1 54178U 22141X   23283.70835210  .00014102  00000-0  90187-3 0  9995,2 54178  53.2193 358.6764 0001500  80.8022 279.3140 15.08858779 52860,6917.823,95.436,540.726,538.65,0.0
54178.0,STARLINK-5164,PAYLOAD,2023-10-11 10:29:16,15.08852442,0.0001523,53.2187,355.4046,92.3999,267.7168,0.0018151,0.00028727,0.0,0 STARLINK-5164,1 54178U 22141X   23284.43699840  .00028727  00000-0  18151-2 0  9991,2 54178  53.2187 355.4046 0001523  92.3999 267.7168 15.08852442 52971,6917.842,95.437,540.761,538.654,0.0
54178.0,STARLINK-5164,PAYLOAD,2023-10-11 12:04:39,15.08859232,0.0001385,53.2186,355.1077,88.5276,271.5874,0.0022618,0.00035911,0.0,0 STARLINK-5164,1 54178U 22141X   23284.50323760  .00035911  00000-0  22618-2 0  9990,2 54178  53.2186 355.1077 0001385  88.5276 271.5874 15.08859232 52984,6917.822,95.436,540.645,538.728,0.0
54178.0,STARLINK-5164,PAYLOAD,2023-10-12 03:58:31,15.08851722,0.0001623,53.2185,352.1381,101.4796,258.6378,0.00075515,0.00011754,0.0,0 STARLINK-5164,1 54178U 22141X   23285.16563705  .00011754  00000-0  75515-3 0  9992,2 54178  53.2185 352.1381 0001623 101.4796 258.6378 15.08851722 53088,6917.845,95.437,540.832,538.587,0.0
54178.0,STARLINK-5164,PAYLOAD,2023-10-12 11:55:26,15.08852912,0.0001836,53.2191,350.6491,91.849,268.2713,0.00063294,9.803e-05,0.0,0 STARLINK-5164,1 54178U 22141X   23285.49683736  .00009803  00000-0  63294-3 0  9998,2 54178  53.2191 350.6491 0001836  91.8490 268.2713 15.08852912 53137,6917.841,95.437,540.976,538.436,0.0
54178.0,STARLINK-5164,PAYLOAD,2023-10-13 11:46:13,15.08845106,0.0001922,53.2188,346.1893,70.0448,290.0751,0.00020486,2.974e-05,0.0,0 STARLINK-5164,1 54178U 22141X   23286.49043970  .00002974  00000-0  20486-3 0  9997,2 54178  53.2188 346.1893 0001922  70.0448 290.0751 15.08845106 53285,6917.865,95.437,541.059,538.4,0.0
54178.0,STARLINK-5164,PAYLOAD,2023-10-13 21:18:32,15.0884774,0.0001642,53.2185,344.4066,82.6603,277.4576,0.00022732,3.332e-05,0.0,0 STARLINK-5164,1 54178U 22141X   23286.88787716  .00003332  00000-0  22732-3 0  9998,2 54178  53.2185 344.4066 0001642  82.6603 277.4576 15.08847740 53343,6917.857,95.437,540.858,538.586,0.0
